IRIDIUM 69              
1 25319U 98026A   25066.17726494  .00000744  00000+0  22653-3 0  9999
2 25319  86.4006 138.5288 0003065  47.6853 312.4606 14.40801956408617
IRIDIUM 71              
1 25320U 98026B   25066.19806718  .00000636  00000+0  19169-3 0  9999
2 25320  86.3993 133.2324 0004224  79.7581 280.4094 14.41011855409155
IRIDIUM 73              
1 25344U 98032C   25066.31736986  .00000936  00000+0  22925-3 0  9992
2 25344  86.4355  90.0953 0002246  74.9136 285.2318 14.51479090415785
IRIDIUM 82              
1 25467U 98051A   25065.68854990  .00023879  00000+0  81924-3 0  9999
2 25467  86.3745 159.8761 0095041 324.7556  34.7427 15.25715458408290
